{"type": "FeatureCollection", "features": [ {"type": "Feature", "properties": {"norad_id": 34432, "name": "COSMOS 2251 DEB", "group": "cosmos-2251-debris", "lat": -19.646385232160046, "lon": -59.17671526564769, "alt_km": 755.7223760351544, "timestamp": "2025-12-05T14:45:15.691849+00:00", "meta": {"OBJECT_NAME": "COSMOS 2251 DEB", "OBJECT_ID": "1993-036RZ", "EPOCH": "2025-12-04T17:34:26.171040", "MEAN_MOTION": 14.02851823, "ECCENTRICITY": 0.0183102, "INCLINATION": 73.8279, "RA_OF_ASC_NODE": 116.4313, "ARG_OF_PERICENTER": 200.3345, "MEAN_ANOMALY": 224.7344, "EPHEMERIS_TYPE": 0, "CLASSIFICATION_TYPE": "U", "NORAD_CAT_ID": 34432, "ELEMENT_SET_NO": 999, "REV_AT_EPOCH": 85572, "BSTAR": 0.0023611, "MEAN_MOTION_DOT": 4.215e-05, "MEAN_MOTION_DDOT": 0}, "tle": {"line1": "1 34432U 93036RZ  25338.73224735  .00004215  00000+0  23611-2 0  9997", "line2": "2 34432  73.8279 116.4313 0183102 200.3345 224.7344 14.02851823855722"}}, "geometry": {"type": "Point", "coordinates": [-59.17671526564769, -19.646385232160046]}}, {"type": "Feature", "properties": {"norad_id": 34433, "name": "COSMOS 2251 DEB", "group": "cosmos-2251-debris", "lat": -28.37050202192756, "lon": 158.65087157859597, "alt_km": 754.1842376740142, "timestamp": "2025-12-05T14:45:15.691860+00:00", "meta": {"OBJECT_NAME": "COSMOS 2251 DEB", "OBJECT_ID": "1993-036SA", "EPOCH": "2025-12-03T23:48:16.288416", "MEAN_MOTION": 14.12791215, "ECCENTRICITY": 0.01517985, "INCLINATION": 74.0107, "RA_OF_ASC_NODE": 170.4313, "ARG_OF_PERICENTER": 310.4463, "MEAN_ANOMALY": 48.3519, "EPHEMERIS_TYPE": 0, "CLASSIFICATION_TYPE": "U", "NORAD_CAT_ID": 34433, "ELEMENT_SET_NO": 999, "REV_AT_EPOCH": 85826, "BSTAR": 0.0024084463, "MEAN_MOTION_DOT": 4.967e-05, "MEAN_MOTION_DDOT": 0}, "tle": {"line1": "1 34433U 93036SA  25337.99185519  .00004967  00000+0  24084-2 0  9990", "line2": "2 34433  74.0107 170.4313 0151798 310.4463  48.3519 14.12791215858261"}}, "geometry": {"type": "Point", "coordinates": [158.65087157859597, -28.37050202192756]}}, {"type": "Feature", "properties": {"norad_id": 34434, "name": "COSMOS 2251 DEB", "group": "cosmos-2251-debris", "lat": 73.96330296656939, "lon": 105.96907290335847, "alt_km": 857.7490603304977, "timestamp": "2025-12-05T14:45:15.691870+00:00", "meta": {"OBJECT_NAME": "COSMOS 2251 DEB", "OBJECT_ID": "1993-036SB", "EPOCH": "2025-12-04T13:00:31.745376", "MEAN_MOTION": 13.89719365, "ECCENTRICITY": 0.0276098, "INCLINATION": 74.0638, "RA_OF_ASC_NODE": 24.0654, "ARG_OF_PERICENTER": 163.247, "MEAN_ANOMALY": 323.1963, "EPHEMERIS_TYPE": 0, "CLASSIFICATION_TYPE": "U", "NORAD_CAT_ID": 34434, "ELEMENT_SET_NO": 999, "REV_AT_EPOCH": 83852, "BSTAR": 0.0068201, "MEAN_MOTION_DOT": 0.00011363, "MEAN_MOTION_DDOT": 0}, "tle": {"line1": "1 34434U 93036SB  25338.54203409  .00011363  00000+0  68201-2 0  9999", "line2": "2 34434  74.0638  24.0654 0276098 163.2470 323.1963 13.89719365838529"}}, "geometry": {"type": "Point", "coordinates": [105.96907290335847, 73.96330296656939]}}, {"type": "Feature", "properties": {"norad_id": 34446, "name": "COSMOS 2251 DEB", "group": "cosmos-2251-debris", "lat": -10.502503480314228, "lon": -106.31606588988033, "alt_km": 697.1386376545242, "timestamp": "2025-12-05T14:45:15.691880+00:00", "meta": {"OBJECT_NAME": "COSMOS 2251 DEB", "OBJECT_ID": "1993-036SP", "EPOCH": "2025-12-04T13:01:31.587744", "MEAN_MOTION": 14.49337633, "ECCENTRICITY": 0.0051522, "INCLINATION": 74.0422, "RA_OF_ASC_NODE": 72.6527, "ARG_OF_PERICENTER": 212.5098, "MEAN_ANOMALY": 147.2887, "EPHEMERIS_TYPE": 0, "CLASSIFICATION_TYPE": "U", "NORAD_CAT_ID": 34446, "ELEMENT_SET_NO": 999, "REV_AT_EPOCH": 88575, "BSTAR": 0.00031587, "MEAN_MOTION_DOT": 1.198e-05, "MEAN_MOTION_DDOT": 0}, "tle": {"line1": "1 34446U 93036SP  25338.54272671  .00001198  00000+0  31587-3 0  9992", "line2": "2 34446  74.0422  72.6527 0051522 212.5098 147.2887 14.49337633885756"}}, "geometry": {"type": "Point", "coordinates": [-106.31606588988033, -10.502503480314228]}}, {"type": "Feature", "properties": {"norad_id": 34449, "name": "COSMOS 2251 DEB", "group": "cosmos-2251-debris", "lat": -71.40303985074547, "lon": -36.76305081207627, "alt_km": 602.065421031617, "timestamp": "2025-12-05T14:45:15.691890+00:00", "meta": {"OBJECT_NAME": "COSMOS 2251 DEB", "OBJECT_ID": "1993-036SS", "EPOCH": "2025-12-04T08:55:15.287808", "MEAN_MOTION": 14.94035598, "ECCENTRICITY": 0.002456, "INCLINATION": 74.0323, "RA_OF_ASC_NODE": 87.4232, "ARG_OF_PERICENTER": 135.3704, "MEAN_ANOMALY": 281.2621, "EPHEMERIS_TYPE": 0, "CLASSIFICATION_TYPE": "U", "NORAD_CAT_ID": 34449, "ELEMENT_SET_NO": 999, "REV_AT_EPOCH": 88568, "BSTAR": 0.0080236, "MEAN_MOTION_DOT": 0.00087172, "MEAN_MOTION_DDOT": 0}, "tle": {"line1": "1 34449U 93036SS  25338.37170472  .00087172  00000+0  80236-2 0  9992", "line2": "2 34449  74.0323  87.4232 0024560 135.3704 281.2621 14.94035598885686"}}, "geometry": {"type": "Point", "coordinates": [-36.76305081207627, -71.40303985074547]}}, {"type": "Feature", "properties": {"norad_id": 34451, "name": "COSMOS 2251 DEB", "group": "cosmos-2251-debris", "lat": -32.31820883531447, "lon": -67.33890171061488, "alt_km": 586.9943862751998, "timestamp": "2025-12-05T14:45:15.691901+00:00", "meta": {"OBJECT_NAME": "COSMOS 2251 DEB", "OBJECT_ID": "1993-036SU", "EPOCH": "2025-12-04T08:53:32.080416", "MEAN_MOTION": 14.9474538, "ECCENTRICITY": 0.0025439, "INCLINATION": 74.0453, "RA_OF_ASC_NODE": 104.7401, "ARG_OF_PERICENTER": 130.6136, "MEAN_ANOMALY": 229.7267, "EPHEMERIS_TYPE": 0, "CLASSIFICATION_TYPE": "U", "NORAD_CAT_ID": 34451, "ELEMENT_SET_NO": 999, "REV_AT_EPOCH": 88510, "BSTAR": 0.0074263, "MEAN_MOTION_DOT": 0.00082125, "MEAN_MOTION_DDOT": 0}, "tle": {"line1": "1 34451U 93036SU  25338.37051019  .00082125  00000+0  74263-2 0  9996", "line2": "2 34451  74.0453 104.7401 0025439 130.6136 229.7267 14.94745380885104"}}, "geometry": {"type": "Point", "coordinates": [-67.33890171061488, -32.31820883531447]}}, {"type": "Feature", "properties": {"norad_id": 34452, "name": "COSMOS 2251 DEB", "group": "cosmos-2251-debris", "lat": -60.81886114446439, "lon": 48.39985207058304, "alt_km": 498.4388866773588, "timestamp": "2025-12-05T14:45:15.691911+00:00", "meta": {"OBJECT_NAME": "COSMOS 2251 DEB", "OBJECT_ID": "1993-036SV", "EPOCH": "2025-12-04T17:18:10.816128", "MEAN_MOTION": 15.11363065, "ECCENTRICITY": 0.0067249, "INCLINATION": 74.0357, "RA_OF_ASC_NODE": 199.4099, "ARG_OF_PERICENTER": 277.4123, "MEAN_ANOMALY": 147.0612, "EPHEMERIS_TYPE": 0, "CLASSIFICATION_TYPE": "U", "NORAD_CAT_ID": 34452, "ELEMENT_SET_NO": 999, "REV_AT_EPOCH": 90541, "BSTAR": 0.0016407, "MEAN_MOTION_DOT": 0.00029307, "MEAN_MOTION_DDOT": 0}, "tle": {"line1": "1 34452U 93036SV  25338.72095852  .00029307  00000+0  16407-2 0  9998", "line2": "2 34452  74.0357 199.4099 0067249 277.4123 147.0612 15.11363065905412"}}, "geometry": {"type": "Point", "coordinates": [48.39985207058304, -60.81886114446439]}}, {"type": "Feature", "properties": {"norad_id": 34453, "name": "COSMOS 2251 DEB", "group": "cosmos-2251-debris", "lat": -11.697204041889893, "lon": 111.91697407348657, "alt_km": 368.25272977466557, "timestamp": "2025-12-05T14:45:15.691921+00:00", "meta": {"OBJECT_NAME": "COSMOS 2251 DEB", "OBJECT_ID": "1993-036SW", "EPOCH": "2025-12-04T11:08:06.606240", "MEAN_MOTION": 15.60191645, "ECCENTRICITY": 0.0019619, "INCLINATION": 74.1168, "RA_OF_ASC_NODE": 117.8527, "ARG_OF_PERICENTER": 351.8038, "MEAN_ANOMALY": 8.2857, "EPHEMERIS_TYPE": 0, "CLASSIFICATION_TYPE": "U", "NORAD_CAT_ID": 34453, "ELEMENT_SET_NO": 999, "REV_AT_EPOCH": 88737, "BSTAR": 0.0173, "MEAN_MOTION_DOT": 0.01599771, "MEAN_MOTION_DDOT": 0}, "tle": {"line1": "1 34453U 93036SW  25338.46396535  .01599771  00000+0  17300-1 0  9992", "line2": "2 34453  74.1168 117.8527 0019619 351.8038   8.2857 15.60191645887374"}}, "geometry": {"type": "Point", "coordinates": [111.91697407348657, -11.697204041889893]}}, {"type": "Feature", "properties": {"norad_id": 34454, "name": "COSMOS 2251 DEB", "group": "cosmos-2251-debris", "lat": -15.940985928104494, "lon": -73.923070591182, "alt_km": 742.2510576015338, "timestamp": "2025-12-05T14:45:15.691931+00:00", "meta": {"OBJECT_NAME": "COSMOS 2251 DEB", "OBJECT_ID": "1993-036SX", "EPOCH": "2025-12-04T07:07:28.985664", "MEAN_MOTION": 14.38786339, "ECCENTRICITY": 0.0035239, "INCLINATION": 74.0585, "RA_OF_ASC_NODE": 293.1859, "ARG_OF_PERICENTER": 357.5452, "MEAN_ANOMALY": 2.5524, "EPHEMERIS_TYPE": 0, "CLASSIFICATION_TYPE": "U", "NORAD_CAT_ID": 34454, "ELEMENT_SET_NO": 999, "REV_AT_EPOCH": 87946, "BSTAR": 0.00053402, "MEAN_MOTION_DOT": 1.627e-05, "MEAN_MOTION_DDOT": 0}, "tle": {"line1": "1 34454U 93036SX  25338.29686326  .00001627  00000+0  53402-3 0  9996", "line2": "2 34454  74.0585 293.1859 0035239 357.5452   2.5524 14.38786339879465"}}, "geometry": {"type": "Point", "coordinates": [-73.923070591182, -15.940985928104494]}}, {"type": "Feature", "properties": {"norad_id": 34459, "name": "COSMOS 2251 DEB", "group": "cosmos-2251-debris", "lat": -57.60766968620696, "lon": 113.10114785568399, "alt_km": 911.7228874030934, "timestamp": "2025-12-05T14:45:15.691941+00:00", "meta": {"OBJECT_NAME": "COSMOS 2251 DEB", "OBJECT_ID": "1993-036TC", "EPOCH": "2025-12-04T05:01:06.964032", "MEAN_MOTION": 14.0047504, "ECCENTRICITY": 0.019189, "INCLINATION": 74.0791, "RA_OF_ASC_NODE": 268.7924, "ARG_OF_PERICENTER": 340.5051, "MEAN_ANOMALY": 18.881, "EPHEMERIS_TYPE": 0, "CLASSIFICATION_TYPE": "U", "NORAD_CAT_ID": 34459, "ELEMENT_SET_NO": 999, "REV_AT_EPOCH": 85592, "BSTAR": 0.0011477, "MEAN_MOTION_DOT": 1.973e-05, "MEAN_MOTION_DDOT": 0}, "tle": {"line1": "1 34459U 93036TC  25338.20910838  .00001973  00000+0  11477-2 0  9999", "line2": "2 34459  74.0791 268.7924 0191890 340.5051  18.8810 14.00475040855929"}}, "geometry": {"type": "Point", "coordinates": [113.10114785568399, -57.60766968620696]}}]}